{
    "links": {
        "self": "http://www.neowsapp.com/rest/v1/neo/3835506?api_key=iIulBulltgU6a56xZRHN4H3l9WmuAYTsLGpBGhQ2"
    },
    "id": "3835506",
    "neo_reference_id": "3835506",
    "name": "(2018 TT6)",
    "designation": "2018 TT6",
    "nasa_jpl_url": "http://ssd.jpl.nasa.gov/sbdb.cgi?sstr=3835506",
    "absolute_magnitude_h": 30.403,
    "estimated_diameter": {
        "kilometers": {
            "estimated_diameter_min": 0.0022077758,
            "estimated_diameter_max": 0.0049367369
        },
        "meters": {
            "estimated_diameter_min": 2.2077758406,
            "estimated_diameter_max": 4.9367368587
        },
        "miles": {
            "estimated_diameter_min": 0.0013718479,
            "estimated_diameter_max": 0.0030675451
        },
        "feet": {
            "estimated_diameter_min": 7.2433592889,
            "estimated_diameter_max": 16.1966437554
        }
    },
    "is_potentially_hazardous_asteroid": false,
    "close_approach_data": [
        {
            "close_approach_date": "2018-10-07",
            "close_approach_date_full": "2018-Oct-07 02:39",
            "epoch_date_close_approach": 1538879940000,
            "relative_velocity": {
                "kilometers_per_second": "5.2234600397",
                "kilometers_per_hour": "18804.4561428047",
                "miles_per_hour": "11684.3577627333"
            },
            "miss_distance": {
                "astronomical": "0.0051477137",
                "lunar": "2.0024606293",
                "kilometers": "770087.004889819",
                "miles": "478509.8760407422"
            },
            "orbiting_body": "Earth"
        },
        {
            "close_approach_date": "2018-10-07",
            "close_approach_date_full": "2018-Oct-07 10:14",
            "epoch_date_close_approach": 1538907240000,
            "relative_velocity": {
                "kilometers_per_second": "5.4649556328",
                "kilometers_per_hour": "19673.8402781498",
                "miles_per_hour": "12224.5592550537"
            },
            "miss_distance": {
                "astronomical": "0.0067222545",
                "lunar": "2.6149570005",
                "kilometers": "1005634.954797915",
                "miles": "624872.585184627"
            },
            "orbiting_body": "Moon"
        }
    ],
    "orbital_data": {
        "orbit_id": "1",
        "orbit_determination_date": "2018-10-25 11:55:52",
        "first_observation_date": "2018-10-05",
        "last_observation_date": "2018-10-05",
        "data_arc_in_days": null,
        "observations_used": 9,
        "orbit_uncertainty": "9",
        "minimum_orbit_intersection": ".0047663",
        "jupiter_tisserand_invariant": "5.221",
        "epoch_osculation": "2458396.5",
        "eccentricity": ".2072213237267646",
        "semi_major_axis": "1.215469479822308",
        "inclination": "6.327917501313184",
        "ascending_node_longitude": "192.2722862242598",
        "orbital_period": "489.4569665329519",
        "perihelion_distance": ".9635982852640472",
        "perihelion_argument": "221.2189075684585",
        "aphelion_distance": "1.467340674380568",
        "perihelion_time": "2458434.384577976906",
        "mean_anomaly": "332.1355522462096",
        "mean_motion": ".7355089918324078",
        "equinox": "J2000",
        "orbit_class": {
            "orbit_class_type": "APO",
            "orbit_class_description": "Near-Earth asteroid orbits which cross the Earth’s orbit similar to that of 1862 Apollo",
            "orbit_class_range": "a (semi-major axis) > 1.0 AU; q (perihelion) < 1.017 AU"
        }
    },
    "is_sentry_object": false
}